CCSDS_OMM_VERS = 2.0
CREATION_DATE  = 
ORIGINATOR     = 

OBJECT_NAME    = STARLINK-36543
OBJECT_ID      = 2026-012Y
CENTER_NAME    = EARTH
REF_FRAME      = TEME
TIME_SYSTEM    = UTC
MEAN_ELEMENT_THEORY = SGP/SGP4

EPOCH          = 2026-02-13T04:00:01.999584
MEAN_MOTION    = 15.45889547
ECCENTRICITY   = .0001674
INCLINATION    = 43.0004
RA_OF_ASC_NODE = 93.3299
ARG_OF_PERICENTER = 280.5329
MEAN_ANOMALY   = 176.0522

EPHEMERIS_TYPE = 0
CLASSIFICATION_TYPE = U
NORAD_CAT_ID   = 67515
ELEMENT_SET_NO = 999
REV_AT_EPOCH   = 507
BSTAR          = -.4004E-1
MEAN_MOTION_DOT = -.1799492E-1
MEAN_MOTION_DDOT = 0

CCSDS_OMM_VERS = 2.0
CREATION_DATE  = 
ORIGINATOR     = 

OBJECT_NAME    = STARLINK-36537
OBJECT_ID      = 2026-012Z
CENTER_NAME    = EARTH
REF_FRAME      = TEME
TIME_SYSTEM    = UTC
MEAN_ELEMENT_THEORY = SGP/SGP4

EPOCH          = 2026-02-13T04:00:01.999584
MEAN_MOTION    = 15.46025197
ECCENTRICITY   = .0000869
INCLINATION    = 43.0001
RA_OF_ASC_NODE = 93.1593
ARG_OF_PERICENTER = 283.1866
MEAN_ANOMALY   = 241.8047

EPHEMERIS_TYPE = 0
CLASSIFICATION_TYPE = U
NORAD_CAT_ID   = 67516
ELEMENT_SET_NO = 999
REV_AT_EPOCH   = 507
BSTAR          = -.42866E-1
MEAN_MOTION_DOT = -.1921214E-1
MEAN_MOTION_DDOT = 0

CCSDS_OMM_VERS = 2.0
CREATION_DATE  = 
ORIGINATOR     = 

OBJECT_NAME    = STARLINK-36544
OBJECT_ID      = 2026-012AA
CENTER_NAME    = EARTH
REF_FRAME      = TEME
TIME_SYSTEM    = UTC
MEAN_ELEMENT_THEORY = SGP/SGP4

EPOCH          = 2026-02-13T04:00:01.999584
MEAN_MOTION    = 15.44202115
ECCENTRICITY   = .0000933
INCLINATION    = 43.0005
RA_OF_ASC_NODE = 93.1375
ARG_OF_PERICENTER = 280.0723
MEAN_ANOMALY   = 253.8986

EPHEMERIS_TYPE = 0
CLASSIFICATION_TYPE = U
NORAD_CAT_ID   = 67517
ELEMENT_SET_NO = 999
REV_AT_EPOCH   = 513
BSTAR          = -.45602E-1
MEAN_MOTION_DOT = -.1919395E-1
MEAN_MOTION_DDOT = 0

CCSDS_OMM_VERS = 2.0
CREATION_DATE  = 
ORIGINATOR     = 

OBJECT_NAME    = STARLINK-36412
OBJECT_ID      = 2026-012AB
CENTER_NAME    = EARTH
REF_FRAME      = TEME
TIME_SYSTEM    = UTC
MEAN_ELEMENT_THEORY = SGP/SGP4

EPOCH          = 2026-02-13T04:00:01.999584
MEAN_MOTION    = 15.49088274
ECCENTRICITY   = .0000545
INCLINATION    = 43.0005
RA_OF_ASC_NODE = 93.0878
ARG_OF_PERICENTER = 275.8052
MEAN_ANOMALY   = 277.4285

EPHEMERIS_TYPE = 0
CLASSIFICATION_TYPE = U
NORAD_CAT_ID   = 67518
ELEMENT_SET_NO = 999
REV_AT_EPOCH   = 507
BSTAR          = -.38148E-1
MEAN_MOTION_DOT = -.1905679E-1
MEAN_MOTION_DDOT = 0

CCSDS_OMM_VERS = 2.0
CREATION_DATE  = 
ORIGINATOR     = 

OBJECT_NAME    = STARLINK-36415
OBJECT_ID      = 2026-012AC
CENTER_NAME    = EARTH
REF_FRAME      = TEME
TIME_SYSTEM    = UTC
MEAN_ELEMENT_THEORY = SGP/SGP4

EPOCH          = 2026-02-13T04:00:01.999584
MEAN_MOTION    = 15.50097563
ECCENTRICITY   = .0000368
INCLINATION    = 43.0003
RA_OF_ASC_NODE = 93.0548
ARG_OF_PERICENTER = 284.4519
MEAN_ANOMALY   = 281.3187

EPHEMERIS_TYPE = 0
CLASSIFICATION_TYPE = U
NORAD_CAT_ID   = 67519
ELEMENT_SET_NO = 999
REV_AT_EPOCH   = 528
BSTAR          = -.41318E-1
MEAN_MOTION_DOT = -.2113183E-1
MEAN_MOTION_DDOT = 0

CCSDS_OMM_VERS = 2.0
CREATION_DATE  = 
ORIGINATOR     = 

OBJECT_NAME    = STARLINK-36547
OBJECT_ID      = 2026-012AD
CENTER_NAME    = EARTH
REF_FRAME      = TEME
TIME_SYSTEM    = UTC
MEAN_ELEMENT_THEORY = SGP/SGP4

EPOCH          = 2026-02-13T04:00:01.999584
MEAN_MOTION    = 15.48626751
ECCENTRICITY   = .000099
INCLINATION    = 43.0004
RA_OF_ASC_NODE = 93.1125
ARG_OF_PERICENTER = 281.0436
MEAN_ANOMALY   = 262.0040

EPHEMERIS_TYPE = 0
CLASSIFICATION_TYPE = U
NORAD_CAT_ID   = 67520
ELEMENT_SET_NO = 999
REV_AT_EPOCH   = 507
BSTAR          = -.38959E-1
MEAN_MOTION_DOT = -.1913881E-1
MEAN_MOTION_DDOT = 0

CCSDS_OMM_VERS = 2.0
CREATION_DATE  = 
ORIGINATOR     = 

OBJECT_NAME    = STARLINK-36444
OBJECT_ID      = 2026-012AE
CENTER_NAME    = EARTH
REF_FRAME      = TEME
TIME_SYSTEM    = UTC
MEAN_ELEMENT_THEORY = SGP/SGP4

EPOCH          = 2026-02-13T04:00:01.999584
MEAN_MOTION    = 15.50099714
ECCENTRICITY   = .0000806
INCLINATION    = 43.0007
RA_OF_ASC_NODE = 93.2349
ARG_OF_PERICENTER = 278.6549
MEAN_ANOMALY   = 215.0566

EPHEMERIS_TYPE = 0
CLASSIFICATION_TYPE = U
NORAD_CAT_ID   = 67521
ELEMENT_SET_NO = 999
REV_AT_EPOCH   = 507
BSTAR          = -.38033E-1
MEAN_MOTION_DOT = -.1963131E-1
MEAN_MOTION_DDOT = 0

CCSDS_OMM_VERS = 2.0
CREATION_DATE  = 
ORIGINATOR     = 

OBJECT_NAME    = HULIANWANG DIGUI-146
OBJECT_ID      = 2026-013A
CENTER_NAME    = EARTH
REF_FRAME      = TEME
TIME_SYSTEM    = UTC
MEAN_ELEMENT_THEORY = SGP/SGP4

EPOCH          = 2026-02-11T08:20:06.010656
MEAN_MOTION    = 13.78804724
ECCENTRICITY   = .00032318
INCLINATION    = 50.0087
RA_OF_ASC_NODE = 93.2680
ARG_OF_PERICENTER = 354.9738
MEAN_ANOMALY   = 5.1123

EPHEMERIS_TYPE = 0
CLASSIFICATION_TYPE = U
NORAD_CAT_ID   = 67522
ELEMENT_SET_NO = 999
REV_AT_EPOCH   = 321
BSTAR          = .98638908E-4
MEAN_MOTION_DOT = -.41E-6
MEAN_MOTION_DDOT = 0

CCSDS_OMM_VERS = 2.0
CREATION_DATE  = 
ORIGINATOR     = 

OBJECT_NAME    = HULIANWANG DIGUI-147
OBJECT_ID      = 2026-013B
CENTER_NAME    = EARTH
REF_FRAME      = TEME
TIME_SYSTEM    = UTC
MEAN_ELEMENT_THEORY = SGP/SGP4

EPOCH          = 2026-02-12T06:55:14.578752
MEAN_MOTION    = 13.77597803
ECCENTRICITY   = .0001508
INCLINATION    = 50.0062
RA_OF_ASC_NODE = 89.5622
ARG_OF_PERICENTER = 9.6650
MEAN_ANOMALY   = 350.4272

EPHEMERIS_TYPE = 0
CLASSIFICATION_TYPE = U
NORAD_CAT_ID   = 67523
ELEMENT_SET_NO = 999
REV_AT_EPOCH   = 334
BSTAR          = .92853E-4
MEAN_MOTION_DOT = -.48E-6
MEAN_MOTION_DDOT = 0

CCSDS_OMM_VERS = 2.0
CREATION_DATE  = 
ORIGINATOR     = 

OBJECT_NAME    = HULIANWANG DIGUI-148
OBJECT_ID      = 2026-013C
CENTER_NAME    = EARTH
REF_FRAME      = TEME
TIME_SYSTEM    = UTC
MEAN_ELEMENT_THEORY = SGP/SGP4

EPOCH          = 2026-02-12T03:19:27.681312
MEAN_MOTION    = 13.78242664
ECCENTRICITY   = .00003997
INCLINATION    = 50.0082
RA_OF_ASC_NODE = 90.1254
ARG_OF_PERICENTER = 334.8113
MEAN_ANOMALY   = 25.2761

EPHEMERIS_TYPE = 0
CLASSIFICATION_TYPE = U
NORAD_CAT_ID   = 67524
ELEMENT_SET_NO = 999
REV_AT_EPOCH   = 332
BSTAR          = .11328643E-3
MEAN_MOTION_DOT = -.27E-6
MEAN_MOTION_DDOT = 0

CCSDS_OMM_VERS = 2.0
CREATION_DATE  = 
ORIGINATOR     = 

OBJECT_NAME    = HULIANWANG DIGUI-149
OBJECT_ID      = 2026-013D
CENTER_NAME    = EARTH
REF_FRAME      = TEME
TIME_SYSTEM    = UTC
MEAN_ELEMENT_THEORY = SGP/SGP4

EPOCH          = 2026-02-12T01:29:49.914528
MEAN_MOTION    = 13.78784861
ECCENTRICITY   = .00011883
INCLINATION    = 50.0083
RA_OF_ASC_NODE = 90.3862
ARG_OF_PERICENTER = 75.5776
MEAN_ANOMALY   = 284.5250

EPHEMERIS_TYPE = 0
CLASSIFICATION_TYPE = U
NORAD_CAT_ID   = 67525
ELEMENT_SET_NO = 999
REV_AT_EPOCH   = 331
BSTAR          = .10606856E-3
MEAN_MOTION_DOT = -.33E-6
MEAN_MOTION_DDOT = 0

CCSDS_OMM_VERS = 2.0
CREATION_DATE  = 
ORIGINATOR     = 

OBJECT_NAME    = HULIANWANG DIGUI-150
OBJECT_ID      = 2026-013E
CENTER_NAME    = EARTH
REF_FRAME      = TEME
TIME_SYSTEM    = UTC
MEAN_ELEMENT_THEORY = SGP/SGP4

EPOCH          = 2026-02-12T06:33:03.442464
MEAN_MOTION    = 13.78631848
ECCENTRICITY   = .00021558
INCLINATION    = 50.0069
RA_OF_ASC_NODE = 89.4842
ARG_OF_PERICENTER = 6.5718
MEAN_ANOMALY   = 353.5203

EPHEMERIS_TYPE = 0
CLASSIFICATION_TYPE = U
NORAD_CAT_ID   = 67526
ELEMENT_SET_NO = 999
REV_AT_EPOCH   = 336
BSTAR          = .10159006E-3
MEAN_MOTION_DOT = -.38E-6
MEAN_MOTION_DDOT = 0

