STARLINK-36543          
1 67515U 26012Y   26044.16668981 -.01799492  00000+0 -40040-1 0  9997
2 67515  43.0004  93.3299 0001674 280.5329 176.0522 15.45889547  5070
STARLINK-36537          
1 67516U 26012Z   26044.16668981 -.01921214  00000+0 -42866-1 0  9995
2 67516  43.0001  93.1593 0000869 283.1866 241.8047 15.46025197  5070
STARLINK-36544          
1 67517U 26012AA  26044.16668981 -.01919395  00000+0 -45602-1 0  9994
2 67517  43.0005  93.1375 0000933 280.0723 253.8986 15.44202115  5130
STARLINK-36412          
1 67518U 26012AB  26044.16668981 -.01905679  00000+0 -38148-1 0  9992
2 67518  43.0005  93.0878 0000545 275.8052 277.4285 15.49088274  5074
STARLINK-36415          
1 67519U 26012AC  26044.16668981 -.02113183  00000+0 -41318-1 0  9998
2 67519  43.0003  93.0548 0000368 284.4519 281.3187 15.50097563  5285
STARLINK-36547          
1 67520U 26012AD  26044.16668981 -.01913881  00000+0 -38959-1 0  9999
2 67520  43.0004  93.1125 0000990 281.0436 262.0040 15.48626751  5077
STARLINK-36444          
1 67521U 26012AE  26044.16668981 -.01963131  00000+0 -38033-1 0  9996
2 67521  43.0007  93.2349 0000806 278.6549 215.0566 15.50099714  5070
HULIANWANG DIGUI-146    
1 67522U 26013A   26042.34729179 -.00000041  00000+0  98639-4 0  9994
2 67522  50.0087  93.2680 0003231 354.9738   5.1123 13.78804724  3212
HULIANWANG DIGUI-147    
1 67523U 26013B   26043.28836318 -.00000048  00000+0  92853-4 0  9992
2 67523  50.0062  89.5622 0001508   9.6650 350.4272 13.77597803  3343
HULIANWANG DIGUI-148    
1 67524U 26013C   26043.13851483 -.00000027  00000+0  11329-3 0  9992
2 67524  50.0082  90.1254 0000399 334.8113  25.2761 13.78242664  3320
HULIANWANG DIGUI-149    
1 67525U 26013D   26043.06238327 -.00000033  00000+0  10607-3 0  9996
2 67525  50.0083  90.3862 0001188  75.5776 284.5250 13.78784861  3312
HULIANWANG DIGUI-150    
1 67526U 26013E   26043.27295651 -.00000038  00000+0  10159-3 0  9990
2 67526  50.0069  89.4842 0002155   6.5718 353.5203 13.78631848  3365
